{
  "type": "FeatureCollection",
  "geometryNote": "水道线由水坝定位点顺序连接，仅用于区域尺度展示和200公里走廊筛选，不是测绘级河道中心线。",
  "features": [
    {
      "type": "Feature",
      "geometry": {
        "type": "LineString",
        "coordinates": [
          [
            100.2906639,
            27.6790416
          ],
          [
            100.5054775,
            27.3481312
          ],
          [
            100.4469611,
            26.8080503
          ],
          [
            100.4140006,
            26.5296066
          ],
          [
            100.81646,
            26.20144
          ],
          [
            101.4372904,
            26.5209324
          ],
          [
            102.63403,
            26.32483
          ],
          [
            102.999943,
            26.7191015
          ],
          [
            103.6434987,
            28.2577539
          ],
          [
            104.3935807,
            28.6454421
          ],
          [
            111.0075702,
            30.8261831
          ]
        ]
      },
      "properties": {
        "name": "长江—金沙江干流",
        "geometryQuality": "simplified-dam-to-dam corridor"
      }
    },
    {
      "type": "Feature",
      "geometry": {
        "type": "LineString",
        "coordinates": [
          [
            101.00972,
            30.19444
          ],
          [
            101.2000171,
            28.6505223
          ],
          [
            101.6297463,
            28.183344
          ],
          [
            101.7917823,
            28.138612
          ],
          [
            101.8780045,
            27.8189002
          ],
          [
            101.7854729,
            26.8231355
          ],
          [
            101.8513922,
            26.7072704
          ],
          [
            102.63403,
            26.32483
          ]
        ]
      },
      "properties": {
        "name": "雅砻江",
        "geometryQuality": "simplified-dam-to-dam corridor"
      }
    },
    {
      "type": "Feature",
      "geometry": {
        "type": "LineString",
        "coordinates": [
          [
            102.056587,
            30.5537974
          ],
          [
            102.2199408,
            29.4486789
          ],
          [
            102.7351861,
            29.3032029
          ],
          [
            102.9338362,
            29.3005253
          ],
          [
            103.0451126,
            29.2355177
          ],
          [
            103.2089701,
            29.2374549
          ],
          [
            103.3126321,
            29.2981878
          ],
          [
            103.6332442,
            29.2564822
          ],
          [
            104.3935807,
            28.6454421
          ]
        ]
      },
      "properties": {
        "name": "大渡河",
        "geometryQuality": "simplified-dam-to-dam corridor"
      }
    },
    {
      "type": "Feature",
      "geometry": {
        "type": "LineString",
        "coordinates": [
          [
            103.4940061,
            31.0076033
          ],
          [
            104.3935807,
            28.6454421
          ]
        ]
      },
      "properties": {
        "name": "岷江",
        "geometryQuality": "simplified-dam-to-dam corridor"
      }
    },
    {
      "type": "Feature",
      "geometry": {
        "type": "LineString",
        "coordinates": [
          [
            105.1178223,
            32.8119396
          ],
          [
            105.6112874,
            32.519324
          ],
          [
            105.7063378,
            32.0932868
          ],
          [
            106.38861,
            29.9075
          ],
          [
            111.0075702,
            30.8261831
          ]
        ]
      },
      "properties": {
        "name": "嘉陵江",
        "geometryQuality": "simplified-dam-to-dam corridor"
      }
    },
    {
      "type": "Feature",
      "geometry": {
        "type": "LineString",
        "coordinates": [
          [
            105.8568456,
            26.8730251
          ],
          [
            106.1554,
            26.8545
          ],
          [
            106.3546941,
            26.9143722
          ],
          [
            106.5601663,
            27.2472128
          ],
          [
            107.6372692,
            27.3705958
          ],
          [
            107.986182,
            27.6751591
          ],
          [
            108.47528,
            28.49806
          ],
          [
            108.3027054,
            29.0793058
          ],
          [
            111.0075702,
            30.8261831
          ]
        ]
      },
      "properties": {
        "name": "乌江",
        "geometryQuality": "simplified-dam-to-dam corridor"
      }
    }
  ]
}
